
 1 90024U RELEAS14 00051.03935584 +.00001327  00000 0  00000 0 0 0882                                                                                                                                                                                                                                                                                                                                                                                                                                                           
 2 90024  64.7717 195.4038 6033327 269.3020  18.6110  2.0061535803847                                                                                                                                                                                                                                                                                                                                                                                                                                                           

         0.0000000        2.0062379        0.6033327       64.7717000      195.4038000      269.3020000       18.6110000
      2700.0000000        2.0062701        0.6033239       64.7716778      195.2688777      269.2741119      292.8033938
      5400.0000000        2.0063022        0.6033151       64.7716556      195.1339554      269.2462238      207.0174927
      8100.0000000        2.0063343        0.6033063       64.7716335      194.9990331      269.2183357      121.2532624
     10800.0000000        2.0063663        0.6032975       64.7716113      194.8641108      269.1904476       35.5106654
     13500.0000000        2.0063982        0.6032887       64.7715891      194.7291885      269.1625596      309.7896602
     16200.0000000        2.0064301        0.6032799       64.7715669      194.5942663      269.1346715      224.0902021
     18900.0000000        2.0064619        0.6032710       64.7715448      194.4593440      269.1067834      138.4122420
     21600.0000000        2.0064937        0.6032622       64.7715226      194.3244217      269.0788953       52.7557270
     24300.0000000        2.0065253        0.6032534       64.7715004      194.1894994      269.0510072      327.1205999
     27000.0000000        2.0065569        0.6032446       64.7714782      194.0545771      269.0231191      241.5067994
     29700.0000000        2.0065883        0.6032358       64.7714561      193.9196548      268.9952310      155.9142596
     32400.0000000        2.0066196        0.6032270       64.7714339      193.7847325      268.9673429       70.3429100
     35100.0000000        2.0066509        0.6032182       64.7714117      193.6498102      268.9394549      344.7926751
     37800.0000000        2.0066820        0.6032094       64.7713895      193.5148879      268.9115668      259.2634748
     40500.0000000        2.0067129        0.6032006       64.7713674      193.3799656      268.8836787      173.7552236
     43200.0000000        2.0067438        0.6031918       64.7713452      193.2450434      268.8557906       88.2678306


 1 90025U RELEAS14 00051.03935584 +.00001327  00000 0  00000 0 0 0882                                                                                                                                                                                                                                                                                                                                                                                                                                                           
 2 90025  64.7717 195.4038 6833327 269.3020  18.6110  2.0061535803847                                                                                                                                                                                                                                                                                                                                                                                                                                                           

         0.0000000        2.0062634        0.6833327       64.7717000      195.4038000      269.3020000       18.6110000
      2700.0000000        2.0063076        0.6833236       64.7716747      195.2119430      269.2693142      292.8092346
      5400.0000000        2.0063517        0.6833144       64.7716493      195.0200860      269.2366285      207.0372461
      8100.0000000        2.0063957        0.6833053       64.7716240      194.8282289      269.2039427      121.2950095
     10800.0000000        2.0064397        0.6832962       64.7715986      194.6363719      269.1712570       35.5824940
     13500.0000000        2.0064837        0.6832870       64.7715733      194.4445149      269.1385712      309.8996630
     16200.0000000        2.0065275        0.6832779       64.7715479      194.2526579      269.1058855      224.2464742
     18900.0000000        2.0065714        0.6832688       64.7715226      194.0608009      269.0731997      138.6228788
     21600.0000000        2.0066151        0.6832596       64.7714973      193.8689439      269.0405140       53.0288220
     24300.0000000        2.0066587        0.6832505       64.7714719      193.6770868      269.0078282      327.4642417
     27000.0000000        2.0067022        0.6832414       64.7714466      193.4852298      268.9751424      241.9290698
     29700.0000000        2.0067456        0.6832322       64.7714212      193.2933728      268.9424567      156.4232304
     32400.0000000        2.0067889        0.6832231       64.7713959      193.1015158      268.9097709       70.9466405
     35100.0000000        2.0068320        0.6832140       64.7713705      192.9096588      268.8770852      345.4992090
     37800.0000000        2.0068750        0.6832048       64.7713452      192.7178018      268.8443994      260.0808369
     40500.0000000        2.0069178        0.6831957       64.7713199      192.5259447      268.8117137      174.6914169
     43200.0000000        2.0069604        0.6831866       64.7712945      192.3340877      268.7790279       89.3308325


 1 90026U RELEAS14 00051.03935584 +.00001327  00000 0  00000 0 0 0882                                                                                                                                                                                                                                                                                                                                                                                                                                                           
 2 90026  64.7717 195.4038 7233327 269.3020  18.6110  2.0061535803847                                                                                                                                                                                                                                                                                                                                                                                                                                                           

         0.0000000        2.0062834        0.7233327       64.7717000      195.4038000      269.3020000       18.6110000
      2700.0000000        2.0063369        0.7233236       64.7716726      195.1641823      269.2649443      292.8133555
      5400.0000000        2.0063903        0.7233144       64.7716451      194.9245646      269.2278885      207.0517631
      8100.0000000        2.0064436        0.7233053       64.7716177      194.6849469      269.1908328      121.3262122
     10800.0000000        2.0064970        0.7232961       64.7715902      194.4453292      269.1537770       35.6366849
     13500.0000000        2.0065503        0.7232870       64.7715628      194.2057114      269.1167213      309.9831550
     16200.0000000        2.0066036        0.7232778       64.7715353      193.9660937      269.0796656      224.3655892
     18900.0000000        2.0066567        0.7232687       64.7715079      193.7264760      269.0426098      138.7839456
     21600.0000000        2.0067098        0.7232596       64.7714804      193.4868583      269.0055541       53.2381741
     24300.0000000        2.0067629        0.7232504       64.7714530      193.2472406      268.9684984      327.7282160
     27000.0000000        2.0068158        0.7232413       64.7714256      193.0076229      268.9314426      242.2540039
     29700.0000000        2.0068685        0.7232321       64.7713981      192.7680052      268.8943869      156.8154608
     32400.0000000        2.0069212        0.7232230       64.7713707      192.5283875      268.8573311       71.4125000
     35100.0000000        2.0069737        0.7232138       64.7713432      192.2887698      268.8202754      346.0450246
     37800.0000000        2.0070260        0.7232047       64.7713158      192.0491521      268.7832197      260.7129271
     40500.0000000        2.0070781        0.7231956       64.7712883      191.8095343      268.7461639      175.4160888
     43200.0000000        2.0071301        0.7231864       64.7712609      191.5699166      268.7091082       90.1543791

